STARLINK-3167           
1 51460U 22010E   22275.82691978 -.00000663  00000+0 -23564-4 0  9999
2 51460  53.2166 147.9360 0001609  52.9768 307.1371 15.08831163 37530
STARLINK-3181           
1 51461U 22010F   22275.84531299  .00001852  00000+0  13436-3 0  9996
2 51461  53.2180 147.8651 0001877  52.2169 307.8993 15.08856998 37534
STARLINK-3166           
1 51462U 22010G   22276.04035716  .00002431  00000+0  17076-3 0  9991
2 51462  53.2160 146.9837 0001995  39.5993 320.5144 15.08844415 38030
STARLINK-3419           
1 51463U 22010H   22275.81588333 -.00000455  00000+0 -10493-4 0  9997
2 51463  53.2180 147.9830 0001726  52.7886 307.3264 15.08826708 37228
STARLINK-3189           
1 51464U 22010J   22276.03300044 -.00000414  00000+0 -78902-5 0  9999
2 51464  53.2185 147.0138 0002060  45.6649 314.4512 15.08834308 38014
STARLINK-3401           
1 51465U 22010K   22276.02932620  .00006032  00000+0  39684-3 0  9992
2 51465  53.2166 147.0294 0001587  56.9669 303.1475 15.08832075 38064
STARLINK-3178           
1 51467U 22010M   22276.14339817  .00002065  00000+0  14784-3 0  9992
2 51467  53.2163 146.5166 0001813  45.7469 314.3672 15.08837444 38070
STARLINK-3174           
1 51468U 22010N   22276.08820701 -.00001574  00000+0 -80776-4 0  9994
2 51468  53.2183 146.7717 0001867  52.8588 307.2574 15.08843218 38075
STARLINK-3182           
1 51469U 22010P   22275.83795558 -.00000046  00000+0  15225-4 0  9997
2 51469  53.2176 147.8780 0001790  44.4577 315.6558 15.08840706 37534
STARLINK-3165           
1 51471U 22010R   22275.84762517 -.00000857  00000+0 -35744-4 0  9999
2 51471  53.2189 142.8456 0001913  50.8281 309.2881 15.08826847 37602
STARLINK-3415           
1 51472U 22010S   22275.81957025 -.00001544  00000+0 -78912-4 0  9995
2 51472  53.2163 147.9753 0002004  40.0762 320.0378 15.08836093 37536
